EPOCH,NORAD_CAT_ID,MEAN_MOTION,ECCENTRICITY,INCLINATION,RA_OF_ASC_NODE,ARG_OF_PERICENTER,MEAN_ANOMALY,MEAN_MOTION_DOT,BSTAR,TLE_LINE1,TLE_LINE2
2024-02-18 22:47:38,50803,15.08845953,0.0001609,53.219,294.8353,88.1841,271.9335,0.00000131,0.000026353,1 50803U 22001A   24049.94975613  .00000131  00000-0  26353-4 0  9992,2 50803  53.2190 294.8353 0001609  88.1841 271.9335 15.08845953117229
2024-02-19 19:27:40,50803,15.08834672,0.0001322,53.2163,290.9694,90.3954,269.719,-0.00000444,-0.0000098145,1 50803U 22001A   24050.81088287 -.00000444  00000-0 -98145-5 0  9990,2 50803  53.2163 290.9694 0001322  90.3954 269.7190 15.08834672118621
2024-02-19 22:38:26,50803,15.08835583,0.0001261,53.2159,290.3758,96.5694,263.5442,-0.00000926,-0.000040096,1 50803U 22001A   24050.94336308 -.00000926  00000-0 -40096-4 0  9990,2 50803  53.2159 290.3758 0001261  96.5694 263.5442 15.08835583117377
2024-02-20 01:49:12,50803,15.08841556,0.0001454,53.2178,289.7785,107.3992,252.716,-0.00002404,-0.00013302,1 50803U 22001A   24051.07584169 -.00002404  00000-0 -13302-3 0  9997,2 50803  53.2178 289.7785 0001454 107.3992 252.7160 15.08841556117392
2024-02-20 22:29:13,50803,15.0884152,0.0001408,53.2172,285.9137,93.8411,266.2742,-0.00000579,-0.000018263,1 50803U 22001A   24051.93696005 -.00000579  00000-0 -18263-4 0  9998,2 50803  53.2172 285.9137 0001408  93.8411 266.2742 15.08841520117521
2024-02-21 01:39:59,50803,15.08840382,0.0001454,53.2176,285.3169,100.554,259.5616,0.00000096,0.000024114,1 50803U 22001A   24052.06943894  .00000096  00000-0  24114-4 0  9998,2 50803  53.2176 285.3169 0001454 100.5540 259.5616 15.08840382118817
2024-02-21 08:01:31,50803,15.08843672,0.0001389,53.217,284.1285,93.8361,266.279,-0.00000381,-0.0000058183,1 50803U 22001A   24052.33439761 -.00000381  00000-0 -58183-5 0  9994,2 50803  53.2170 284.1285 0001389  93.8361 266.2790 15.08843672117585
2024-02-21 19:09:14,50803,15.08830468,0.0001535,53.2172,282.0482,99.3677,260.7489,-0.00000112,0.000011042,1 50803U 22001A   24052.79808781 -.00000112  00000-0  11042-4 0  9999,2 50803  53.2172 282.0482 0001535  99.3677 260.7489 15.08830468118929
2024-02-21 22:20:00,50803,15.08833057,0.0001464,53.217,281.4554,98.6997,261.4161,0.00000089,0.000023659,1 50803U 22001A   24052.93056646  .00000089  00000-0  23659-4 0  9999,2 50803  53.2170 281.4554 0001464  98.6997 261.4161 15.08833057117671
2024-02-22 19:00:01,50803,15.08843685,0.0001674,53.2174,277.5892,117.0473,243.069,-0.00000639,-0.000022054,1 50803U 22001A   24053.79168337 -.00000639  00000-0 -22054-4 0  9996,2 50803  53.2174 277.5892 0001674 117.0473 243.0690 15.08843685119071
2024-02-22 22:10:47,50803,15.08845431,0.0001425,53.2168,276.9954,101.8956,258.2196,-0.00000001,0.000018005,1 50803U 22001A   24053.92416104 -.00000001  00000-0  18005-4 0  9992,2 50803  53.2168 276.9954 0001425 101.8956 258.2196 15.08845431117828
2024-02-23 07:43:06,50803,15.08839636,0.0001735,53.2182,275.2074,80.4365,279.6823,-0.00000227,0.0000038553,1 50803U 22001A   24054.32160587 -.00000227  00000-0  38553-5 0  9999,2 50803  53.2182 275.2074 0001735  80.4365 279.6823 15.08839636117889
2024-02-23 20:26:12,50803,15.08833189,0.0001724,53.2178,272.8315,87.7875,272.3315,-0.00000678,-0.000024478,1 50803U 22001A   24054.85153283 -.00000678  00000-0 -24478-4 0  9993,2 50803  53.2178 272.8315 0001724  87.7875 272.3315 15.08833189119233
2024-02-23 22:01:35,50803,15.08833115,0.0001548,53.2169,272.5342,86.2054,273.9115,-0.00000491,-0.000012772,1 50803U 22001A   24054.91777226 -.00000491  00000-0 -12772-4 0  9996,2 50803  53.2169 272.5342 0001548  86.2054 273.9115 15.08833115117970
2024-02-24 07:33:54,50803,15.08838445,0.0001633,53.2174,270.7508,88.5646,271.5533,0.00000093,0.000023925,1 50803U 22001A   24055.31520869  .00000093  00000-0  23925-4 0  9998,2 50803  53.2174 270.7508 0001633  88.5646 271.5533 15.08838445119305
2024-02-24 07:33:54,50803,15.08838445,0.0001633,53.2174,270.7508,88.5646,271.5533,0.00000093,0.000023925,1 50803U 22001A   24055.31520869  .00000093  00000-0  23925-4 0  9998,2 50803  53.2174 270.7508 0001633  88.5646 271.5533 15.08838445118034
2024-02-24 20:16:58,50803,15.08847563,0.000153,53.2167,268.3717,85.6941,274.4226,0.00000396,0.000042939,1 50803U 22001A   24055.84512147  .00000396  00000-0  42939-4 0  9998,2 50803  53.2167 268.3717 0001530  85.6941 274.4226 15.08847563118114
2024-02-24 20:16:58,50803,15.08847563,0.000153,53.2167,268.3717,85.6941,274.4226,0.00000396,0.000042939,1 50803U 22001A   24055.84512147  .00000396  00000-0  42939-4 0  9998,2 50803  53.2167 268.3717 0001530  85.6941 274.4226 15.08847563119384
2024-02-25 13:46:13,50803,15.08839114,0.0001585,53.2166,265.0997,81.6779,278.4393,0.00001127,0.000088864,1 50803U 22001A   24056.57376299  .00001127  00000-0  88864-4 0  9995,2 50803  53.2166 265.0997 0001585  81.6779 278.4393 15.08839114118226
2024-02-25 20:07:45,50803,15.08844737,0.0001572,53.2151,263.9077,89.518,270.5993,0.00001811,0.00013186,1 50803U 22001A   24056.83871732  .00001811  00000-0  13186-3 0  9990,2 50803  53.2151 263.9077 0001572  89.5180 270.5993 15.08844737118265
2024-02-26 13:37:00,50803,15.08838569,0.0001326,53.2129,260.6398,80.5146,279.5996,-0.00000757,-0.000029471,1 50803U 22001A   24057.56736581 -.00000757  00000-0 -29471-4 0  9998,2 50803  53.2129 260.6398 0001326  80.5146 279.5996 15.08838569118370
2024-02-26 19:58:33,50803,15.08845964,0.0001285,53.2145,259.4492,86.2284,273.8855,-0.00003033,-0.0001725,1 50803U 22001A   24057.83232742 -.00003033  00000-0 -17250-3 0  9999,2 50803  53.2145 259.4492 0001285  86.2284 273.8855 15.08845964119682
2024-02-26 19:58:33,50803,15.08845964,0.0001285,53.2145,259.4492,86.2284,273.8855,-0.00003033,-0.0001725,1 50803U 22001A   24057.83232742 -.00003033  00000-0 -17250-3 0  9999,2 50803  53.2145 259.4492 0001285  86.2284 273.8855 15.08845964118412
2024-02-27 19:49:19,50803,15.08843258,0.0001382,53.215,254.9873,93.569,266.5461,-0.00000125,0.000010248,1 50803U 22001A   24058.82592105 -.00000125  00000-0  10248-4 0  9990,2 50803  53.2150 254.9873 0001382  93.5690 266.5461 15.08843258118563
2024-02-27 23:00:05,50803,15.08847396,0.0001476,53.2159,254.3907,101.8888,258.2269,-0.00000692,-0.000025368,1 50803U 22001A   24058.95839922 -.00000692  00000-0 -25368-4 0  9994,2 50803  53.2159 254.3907 0001476 101.8888 258.2269 15.08847396119854
2024-02-28 13:18:35,50803,15.08830268,0.000138,53.2161,251.7126,98.8789,261.236,-0.0000069,-0.000025248,1 50803U 22001A   24059.55457217 -.00000690  00000-0 -25248-4 0  9999,2 50803  53.2161 251.7126 0001380  98.8789 261.2360 15.08830268118675
2024-02-28 19:40:06,50803,15.08842766,0.0001573,53.2169,250.5218,107.7696,252.3468,0.00000709,0.000062603,1 50803U 22001A   24059.81952140  .00000709  00000-0  62603-4 0  9998,2 50803  53.2169 250.5218 0001573 107.7696 252.3468 15.08842766118714
2024-02-28 19:40:06,50803,15.08842766,0.0001573,53.2169,250.5218,107.7696,252.3468,0.00000709,0.000062603,1 50803U 22001A   24059.81952140  .00000709  00000-0  62603-4 0  9998,2 50803  53.2169 250.5218 0001573 107.7696 252.3468 15.08842766119984
2024-02-29 11:33:58,50803,15.08841811,0.0001556,53.2169,247.554,93.7216,266.3954,-0.00000568,-0.000017571,1 50803U 22001A   24060.48192748 -.00000568  00000-0 -17571-4 0  9992,2 50803  53.2169 247.5540 0001556  93.7216 266.3954 15.08841811120089
2024-02-29 11:33:58,50803,15.08841811,0.0001556,53.2169,247.554,93.7216,266.3954,-0.00000568,-0.000017571,1 50803U 22001A   24060.48192748 -.00000568  00000-0 -17571-4 0  9992,2 50803  53.2169 247.5540 0001556  93.7216 266.3954 15.08841811118817
2024-02-29 21:06:17,50803,15.08837182,0.0001486,53.2174,245.7708,94.9461,265.1701,0.00000257,0.000034211,1 50803U 22001A   24060.87936774  .00000257  00000-0  34211-4 0  9993,2 50803  53.2174 245.7708 0001486  94.9461 265.1701 15.08837182118875
2024-03-01 05:03:13,50803,15.08838831,0.0001443,53.2172,244.2835,90.7493,269.3664,-0.00000672,-0.000024118,1 50803U 22001A   24061.21056897 -.00000672  00000-0 -24118-4 0  9999,2 50803  53.2172 244.2835 0001443  90.7493 269.3664 15.08838831118922
2024-03-01 19:21:41,50803,15.08839,0.0001538,53.2173,241.6065,95.0263,265.0904,-0.00000668,-0.000023899,1 50803U 22001A   24061.80673108 -.00000668  00000-0 -23899-4 0  9994,2 50803  53.2173 241.6065 0001538  95.0263 265.0904 15.08839000120288
2024-03-01 19:21:41,50803,15.08839,0.0001538,53.2173,241.6065,95.0263,265.0904,-0.00000668,-0.000023899,1 50803U 22001A   24061.80673108 -.00000668  00000-0 -23899-4 0  9994,2 50803  53.2173 241.6065 0001538  95.0263 265.0904 15.08839000119017
2024-03-02 19:12:28,50803,15.08838015,0.0001429,53.2171,237.145,84.5165,275.599,-0.00000417,-0.0000080921,1 50803U 22001A   24062.80033354 -.00000417  00000-0 -80921-5 0  9990,2 50803  53.2171 237.1450 0001429  84.5165 275.5990 15.08838015119168
2024-03-03 04:44:47,50803,15.0883787,0.000148,53.2176,235.3618,85.2442,274.8719,0.00000151,0.000027559,1 50803U 22001A   24063.19777315  .00000151  00000-0  27559-4 0  9995,2 50803  53.2176 235.3618 0001480  85.2442 274.8719 15.08837870120499
2024-03-03 04:44:47,50803,15.0883787,0.000148,53.2176,235.3618,85.2442,274.8719,0.00000151,0.000027559,1 50803U 22001A   24063.19777315  .00000151  00000-0  27559-4 0  9995,2 50803  53.2176 235.3618 0001480  85.2442 274.8719 15.08837870119228
2024-03-03 20:38:38,50803,15.0884981,0.0001417,53.2168,232.386,91.9178,268.1977,0.00000872,0.000072856,1 50803U 22001A   24063.86016439  .00000872  00000-0  72856-4 0  9992,2 50803  53.2168 232.3860 0001417  91.9178 268.1977 15.08849810119325
2024-03-03 20:38:38,50803,15.0884981,0.0001417,53.2168,232.386,91.9178,268.1977,0.00000872,0.000072856,1 50803U 22001A   24063.86016439  .00000872  00000-0  72856-4 0  9992,2 50803  53.2168 232.3860 0001417  91.9178 268.1977 15.08849810120596
2024-03-04 04:35:33,50803,15.08846072,0.00014,53.217,230.8996,81.8765,278.2386,0.00001148,0.000090208,1 50803U 22001A   24064.19136485  .00001148  00000-0  90208-4 0  9991,2 50803  53.2170 230.8996 0001400  81.8765 278.2386 15.08846072119371
